ONEWEB-0571             
1 55150U 23004L   23059.58334491 -.00007918  00000+0 -14607-2 0  9997
2 55150  86.6249 264.0985 0016589  61.7511 250.1112 14.65683990  1304
ONEWEB-0571             
1 55150U 23004L   23059.75001157 -.00041526  00000+0 -76789-2 0  9998
2 55150  86.6248 264.0290 0016543  60.9970  49.6999 14.65690996  7519
ONEWEB-0571             
1 55150U 23004L   23059.91667824  .00051946  00000+0  94728-2 0  9993
2 55150  86.6248 263.9602 0016586  60.3910 209.1496 14.65644852  1305
ONEWEB-0571             
1 55150U 23004L   23060.13870678  .00001115  00000+0  20055-3 0  9998
2 55150  86.6244 263.8695 0016540  59.5299 300.7546 14.65671795  7577
ONEWEB-0571             
1 55150U 23004L   23060.82143183  .00001039  00000+0  18645-3 0  9995
2 55150  86.6244 263.5884 0016497  57.4566 302.8239 14.65673289  7672
ONEWEB-0571             
1 55150U 23004L   23061.84550902  .00000897  00000+0  16042-3 0  9999
2 55150  86.6244 263.1665 0016418  54.3343 305.9396 14.65677773  7824
ONEWEB-0571             
1 55150U 23004L   23062.52822975  .00000827  00000+0  14746-3 0  9999
2 55150  86.6243 262.8853 0016350  52.3087 307.9606 14.65679787  7920
ONEWEB-0571             
1 55150U 23004L   23062.86958965  .00000837  00000+0  14937-3 0  9998
2 55150  86.6244 262.7447 0016323  51.2722 308.9948 14.65681298  7978
